OBJECT_NAME,OBJECT_ID,EPOCH,MEAN_MOTION,ECCENTRICITY,INCLINATION,RA_OF_ASC_NODE,ARG_OF_PERICENTER,MEAN_ANOMALY,EPHEMERIS_TYPE,CLASSIFICATION_TYPE,NORAD_CAT_ID,ELEMENT_SET_NO,REV_AT_EPOCH,BSTAR,MEAN_MOTION_DOT,MEAN_MOTION_DDOT
STARLINK-2726,2021-044AA,2026-07-11T13:06:12.500928,15.29359048,.0000868,53.1564,258.8617,57.1808,302.9275,0,U,48662,999,28277,.38273E-5,-.245E-5,0
STARLINK-2667,2021-044AB,2026-07-11T11:18:49.369536,15.31698327,.00012691,53.1588,247.9684,82.1288,277.9857,0,U,48663,999,28293,-.1229053E-5,-.403E-5,0
STARLINK-2666,2021-044AE,2026-07-11T12:32:06.669024,15.29359483,.0001191,53.1576,259.0486,120.2298,239.8820,0,U,48666,999,28276,.87297E-3,.24922E-3,0
STARLINK-2735,2021-044AF,2026-07-11T11:10:19.547328,15.29359630,.0000836,53.1602,259.2106,129.0290,231.0785,0,U,48667,999,28276,.13758545E-3,.3617E-4,0
STARLINK-2738,2021-044AG,2026-07-11T11:12:07.060896,15.31699960,.00011105,53.1575,248.0401,79.8766,280.2361,0,U,48668,999,28293,-.14097701E-4,-.802E-5,0
STARLINK-2707,2021-044AH,2026-07-11T11:25:34.221792,15.31697237,.00009266,53.1577,248.1236,76.2726,283.8378,0,U,48669,999,28292,-.5172745E-5,-.525E-5,0
STARLINK-2763,2021-044AJ,2026-07-11T03:49:12.155808,15.31709951,.00012513,53.1587,249.7270,82.7384,277.3759,0,U,48670,999,28287,.40946752E-4,.906E-5,0
STARLINK-2745,2021-044AK,2026-07-11T07:52:49.674144,15.29360962,.0001238,53.1594,259.9521,74.7447,285.3690,0,U,48671,999,28273,.1458224E-3,.3855E-4,0
STARLINK-2705,2021-044AL,2026-07-11T03:55:56.453376,15.31708091,.0000884,53.1593,249.8237,6.8521,353.2492,0,U,48672,999,28287,.32162145E-4,.633E-5,0
STARLINK-2711,2021-044AM,2026-07-10T05:00:03.511872,15.29369588,.00013761,53.1562,265.0892,75.6444,284.4709,0,U,48673,999,28256,.69204535E-4,.1642E-4,0
STARLINK-2712,2021-044AN,2026-07-09T11:41:10.567968,15.29363861,.00011748,53.1601,268.4753,69.0306,291.0820,0,U,48674,999,28245,.14302358E-3,.3774E-4,0
STARLINK-2746,2021-044AQ,2026-07-11T12:09:18.498240,15.29355405,.0001039,53.1598,259.1095,63.2395,296.8712,0,U,48676,999,28276,-.36408391E-4,-.1406E-4,0
STARLINK-2615,2021-044AS,2026-07-10T04:13:00.629472,15.31726882,.00013665,53.1577,253.8979,76.6619,283.4534,0,U,48678,999,28273,.2498292E-3,.7401E-4,0
STARLINK-2648,2021-044AT,2026-07-11T11:43:43.083840,15.29366636,.00009312,53.1569,259.1181,78.5475,281.5630,0,U,48679,999,28276,.79283742E-4,.1933E-4,0
STARLINK-2725,2021-044AV,2026-07-11T13:29:27.785760,15.31714956,.0000687,53.1629,219.2710,13.9165,346.1856,0,U,48681,999,28333,-.14537E-4,-.816E-5,0
STARLINK-2743,2021-044AW,2026-07-11T09:03:44.313408,15.31725315,.00020584,53.1565,209.5132,83.1662,276.9574,0,U,48682,999,28345,-.21490275E-3,-.7034E-4,0
STARLINK-2756,2021-044AX,2026-07-11T08:50:22.077312,15.31703867,.00010948,53.1568,209.7477,80.8810,279.2315,0,U,48683,999,28345,.25279661E-4,.42E-5,0
STARLINK-2741,2021-044AY,2026-07-11T10:55:33.712320,15.31695041,.0001446,53.1585,222.0583,86.3642,273.7525,0,U,48684,999,28329,-.7306844E-5,-.592E-5,0
STARLINK-2751,2021-044AZ,2026-07-10T07:53:39.279840,15.31701546,.00018189,53.1584,214.2988,99.9187,260.2020,0,U,48685,999,28330,.5086774E-4,.1213E-4,0
STARLINK-2629,2021-044BA,2026-07-11T02:31:11.898048,15.31719084,.00020996,53.1588,221.1505,105.6079,254.5155,0,U,48686,999,28326,.89782101E-4,.2423E-4,0
STARLINK-2627,2021-044BB,2026-07-11T00:06:49.578336,15.31709778,.00014427,53.1561,211.2223,93.8013,266.3154,0,U,48687,999,28339,.55066627E-4,.1344E-4,0
STARLINK-2742,2021-044BC,2026-07-10T10:34:47.077824,15.31701624,.00016559,53.1579,214.0546,76.7638,283.3549,0,U,48688,999,28330,-.70922226E-4,-.2566E-4,0
STARLINK-2740,2021-044BE,2026-07-11T11:15:11.143008,15.31699642,.00016767,53.1577,219.4083,86.3597,273.7596,0,U,48690,999,28332,-.66553757E-4,-.243E-4,0
STARLINK-2750,2021-044BF,2026-07-11T13:08:47.788512,15.31700522,.0001199,53.1589,219.0200,77.0273,283.0863,0,U,48691,999,28333,-.56031458E-4,-.2103E-4,0
STARLINK-2752,2021-044BG,2026-07-11T02:37:53.080896,15.31705239,.0001235,53.1589,220.8544,82.3431,277.7710,0,U,48692,999,28327,.41387416E-4,.92E-5,0
STARLINK-2618,2021-044BH,2026-07-11T11:48:44.041824,15.31695282,.00018039,53.1561,219.2132,98.0035,262.1171,0,U,48693,999,28333,-.54715054E-4,-.2063E-4,0
STARLINK-2748,2021-044BJ,2026-07-10T02:42:44.574624,15.31715211,.00008768,53.1599,228.8762,82.9770,277.1331,0,U,48694,999,28307,-.44581238E-4,-.1749E-4,0
STARLINK-2616,2021-044BK,2026-07-11T11:49:43.154112,15.31692940,.0000297,53.1579,221.7621,87.9235,272.1800,0,U,48695,999,28330,.21722968E-3,.6381E-4,0
STARLINK-2753,2021-044BL,2026-07-10T08:49:03.182880,15.31708109,.00010295,53.1583,237.8009,97.3657,262.7461,0,U,48696,999,28297,.51177432E-4,.1224E-4,0
STARLINK-3005,2021-059C,2026-07-11T20:32:14.714304,15.01089292,.0004261,97.4756,317.1040,161.8284,198.3093,0,U,48881,999,27743,-.18276E-2,-.23353E-3,0
STARLINK-3090,2021-082C,2026-07-11T19:29:50.392320,14.98331079,.0002956,70.0010,341.3730,267.9084,92.1737,0,U,49132,999,26457,.19051E-4,.134E-5,0
STARLINK-3077,2021-082D,2026-07-11T19:53:53.184192,14.98329976,.0003203,70.0007,341.4561,270.3650,89.7142,0,U,49133,999,26457,.29136E-4,.255E-5,0
STARLINK-3078,2021-082E,2026-07-11T19:47:52.738080,14.98330587,.0002988,70.0009,341.4697,264.7157,95.3661,0,U,49134,999,26577,.66097E-5,-.14E-6,0
STARLINK-3073,2021-082F,2026-07-11T17:29:01.027104,14.98329381,.0003215,70.0006,301.6932,268.4842,91.5949,0,U,49135,999,26555,-.1306E-4,-.249E-5,0
STARLINK-3055,2021-082H,2026-07-11T18:54:00.101952,14.97523759,.0003331,70.0002,322.7412,268.7346,91.3431,0,U,49137,999,26503,-.99614E-5,-.209E-5,0
STARLINK-3058,2021-082J,2026-07-11T19:41:52.210752,14.98330589,.0003165,70.0008,341.4846,269.8351,90.2446,0,U,49138,999,26457,.12846E-4,.6E-6,0
STARLINK-3057,2021-082K,2026-07-11T16:06:20.217312,15.22106504,.0003323,69.9986,299.5708,274.3262,85.7529,0,U,49139,999,26559,.13118E-2,.30132E-3,0
STARLINK-3093,2021-082M,2026-07-11T19:35:51.762048,14.98330752,.0002901,70.0007,341.4987,264.4529,95.6300,0,U,49141,999,26577,.27719E-4,.238E-5,0
STARLINK-3109,2021-082P,2026-07-11T18:48:09.978912,14.97524143,.0003195,70.0002,322.7551,266.4071,93.6722,0,U,49143,999,26614,.15533E-4,.89E-6,0
STARLINK-3100,2021-082Q,2026-07-11T19:23:50.572608,14.98332551,.0003448,69.9999,341.4987,274.4329,85.6436,0,U,49144,999,26457,.47717E-5,-.36E-6,0
STARLINK-3119,2021-082R,2026-07-11T16:34:57.667008,14.98319876,.0003734,69.9993,301.7892,267.6443,92.4289,0,U,49145,999,26553,-.34681E-4,-.507E-5,0
STARLINK-3116,2021-082S,2026-07-11T18:42:10.844352,14.97528298,.0003284,69.9999,322.7695,270.9629,89.1153,0,U,49146,999,26618,.82334E-4,.87E-5,0
STARLINK-3071,2021-082T,2026-07-11T16:52:58.275264,14.98329259,.0003364,70.0001,301.7746,272.1593,87.9181,0,U,49147,999,26554,-.14752E-4,-.269E-5,0
STARLINK-3048,2021-082U,2026-07-11T18:30:08.016768,14.97524517,.0002846,69.9999,322.7685,269.8848,90.1985,0,U,49148,999,26502,.15971E-4,.94E-6,0
STARLINK-3102,2021-082X,2026-07-11T16:22:55.432992,14.98331734,.0003386,70.0001,301.8190,264.8226,95.2547,0,U,49151,999,26673,-.52977E-4,-.725E-5,0
STARLINK-3072,2021-082Z,2026-07-11T16:10:54.502752,14.98331627,.0002828,70.0008,301.8469,269.3576,90.7259,0,U,49153,999,26674,.10934E-4,.37E-6,0
STARLINK-3068,2021-082AA,2026-07-11T18:24:07.611264,14.97524171,.0003034,70.0007,322.7841,267.2455,92.8357,0,U,49154,999,26610,-.31964E-4,-.466E-5,0
STARLINK-3060,2021-082AB,2026-07-11T16:04:53.857920,14.98333186,.0003335,70.0005,301.8486,274.8876,85.1902,0,U,49155,999,26661,.12289E-4,.54E-6,0
STARLINK-3085,2021-082AC,2026-07-11T17:10:58.797120,14.98339683,.0002807,70.0016,301.7339,259.4328,100.6514,0,U,49156,999,26662,.31544E-4,.284E-5,0
STARLINK-3051,2021-082AD,2026-07-11T17:49:07.132224,15.06131194,.0001181,69.9985,315.5686,65.2196,294.9090,0,U,49157,999,26630,.31498E-3,.452E-4,0
STARLINK-3083,2021-082AE,2026-07-11T11:43:56.834400,15.81950590,.00049964,69.9585,183.6077,270.4501,89.6128,0,U,49158,999,26951,.38331482E-3,.78501E-3,0
STARLINK-3056,2021-082AF,2026-07-11T19:05:49.225632,14.98338236,.0003141,70.0001,341.5401,269.8071,90.2728,0,U,49159,999,26566,.64459E-4,.676E-5,0
STARLINK-3095,2021-082AG,2026-07-11T20:23:55.603968,14.98341542,.0003259,70.0004,341.3860,268.9011,91.1775,0,U,49160,999,26564,.2218E-4,.172E-5,0
STARLINK-3080,2021-082AH,2026-07-11T20:29:56.673024,14.98319986,.0002943,70.0007,341.3718,272.5314,87.5509,0,U,49161,999,26565,.4824E-4,.483E-5,0
STARLINK-3088,2021-082AK,2026-07-11T18:06:05.656896,14.97533754,.0003208,70.0007,322.8262,266.9442,93.1349,0,U,49163,999,26618,.61951E-4,.632E-5,0
STARLINK-3106,2021-082AL,2026-07-11T13:05:11.620032,14.98280974,.0009385,69.9846,322.1608,318.6168,41.4279,0,U,49164,999,26618,-.51594E-3,-.6242E-4,0
STARLINK-3052,2021-082AM,2026-07-11T20:17:55.265856,14.98330912,.0003219,70.0001,341.4276,270.4913,89.5877,0,U,49165,999,26577,.43328E-4,.424E-5,0
STARLINK-3089,2021-082AN,2026-07-11T18:00:04.561056,14.97527193,.0003561,69.9997,322.8378,270.0111,90.0640,0,U,49166,999,26622,-.18051E-4,-.303E-5,0
STARLINK-3054,2021-082AP,2026-07-11T20:05:54.142080,14.98331062,.0003275,70.0006,341.4293,268.7626,91.3158,0,U,49167,999,26577,-.53447E-6,-.99E-6,0
STARLINK-3046,2021-082AR,2026-07-11T17:47:23.656128,14.98318771,.000377,69.9988,321.6841,281.9731,78.1005,0,U,49169,999,26505,-.22351E-3,-.2758E-4,0
STARLINK-3107,2021-082AT,2026-07-11T19:12:17.747424,15.15567935,.0001261,69.9944,327.6500,50.1116,310.0163,0,U,49171,999,26607,.79741E-3,.15086E-3,0
STARLINK-3045,2021-082AV,2026-07-11T19:05:29.198112,14.98333559,.0003181,70.0003,321.5328,267.4516,92.6279,0,U,49173,999,26506,-.19508E-4,-.326E-5,0
STARLINK-3087,2021-082AX,2026-07-11T18:43:12.914976,14.97534369,.0002925,70.0016,322.8962,271.5174,88.5649,0,U,49175,999,26502,-.43718E-3,-.5199E-4,0
STARLINK-3069,2021-082AY,2026-07-11T22:00:03.000096,15.28025719,.0003921,70.0001,299.4464,278.0443,102.5050,0,U,49176,999,571,-.51511E-3,-.1422E-3,0
STARLINK-3103,2021-082AZ,2026-07-11T16:46:58.803744,14.98329959,.0003612,69.9991,301.7886,267.3514,92.7231,0,U,49177,999,26673,.37035E-4,.349E-5,0
